start=new Date('2022-12-15T00:00:00.000Z').valueOf();
sats=[{"OBJECT_TYPE":"PAYLOAD","SITE":"AFETR","RA_OF_ASC_NODE":"177.7941","CENTER_NAME":"EARTH","NORAD_CAT_ID":"46129","PERIOD":"95.592","MEAN_MOTION_DDOT":"0.0000000000000","SEMIMAJOR_AXIS":"6925.358","COUNTRY_CODE":"US","DECAY_DATE":null,"GP_ID":"220407028","PERIAPSIS":"546.233","INCLINATION":"53.0524","BSTAR":"0.00003047500000","ARG_OF_PERICENTER":"82.4738","MEAN_MOTION":"15.06396962","REV_AT_EPOCH":"12864","OBJECT_ID":"2020-057N","LAUNCH_DATE":"2020-08-18","OBJECT_NAME":"STARLINK-1623","MEAN_ANOMALY":"277.6413","ELEMENT_SET_NO":"999","APOAPSIS":"548.213","MEAN_ELEMENT_THEORY":"SGP4","TLE_LINE1":"1 46129U 20057N   22348.81017240  .00000172  00000-0  30475-4 0  9991","TLE_LINE2":"2 46129  53.0524 177.7941 0001429  82.4738 277.6413 15.06396962128645","FILE":"3699647","EPHEMERIS_TYPE":"0","EPOCH":"2022-12-14T19:26:38.895360","MEAN_MOTION_DOT":"0.00000172","RCS_SIZE":"LARGE","ECCENTRICITY":"0.00014290","TIME_SYSTEM":"UTC","REF_FRAME":"TEME","CLASSIFICATION_TYPE":"U"},{"NORAD_CAT_ID":"46130","PERIOD":"95.592","MEAN_MOTION_DDOT":"0.0000000000000","OBJECT_TYPE":"PAYLOAD","SITE":"AFETR","RA_OF_ASC_NODE":"178.2364","CENTER_NAME":"EARTH","BSTAR":"0.00001972400000","MEAN_MOTION":"15.06408977","ARG_OF_PERICENTER":"60.6196","REV_AT_EPOCH":"12987","OBJECT_ID":"2020-057P","LAUNCH_DATE":"2020-08-18","OBJECT_NAME":"STARLINK-1624","MEAN_ANOMALY":"299.4950","SEMIMAJOR_AXIS":"6925.321","DECAY_DATE":null,"COUNTRY_CODE":"US","GP_ID":"220405787","PERIAPSIS":"546.095","INCLINATION":"53.0544","APOAPSIS":"548.277","MEAN_ELEMENT_THEORY":"SGP4","TLE_LINE1":"1 46130U 20057P   22348.71065262  .00000012  00000-0  19724-4 0  9996","FILE":"3699647","TLE_LINE2":"2 46130  53.0544 178.2364 0001576  60.6196 299.4950 15.06408977129877","ELEMENT_SET_NO":"999","MEAN_MOTION_DOT":"0.00000012","RCS_SIZE":"LARGE","ECCENTRICITY":"0.00015760","TIME_SYSTEM":"UTC","REF_FRAME":"TEME","CLASSIFICATION_TYPE":"U","EPHEMERIS_TYPE":"0","EPOCH":"2022-12-14T17:03:20.386368"},{"FILE":"3699647","TLE_LINE2":"2 46131  53.0553 197.5809 0001377  67.0635 293.0499 15.06407460129621","MEAN_ELEMENT_THEORY":"SGP4","APOAPSIS":"548.144","TLE_LINE1":"1 46131U 20057Q   22348.85624469  .00003901  00000-0  28059-3 0  9992","ELEMENT_SET_NO":"999","TIME_SYSTEM":"UTC","REF_FRAME":"TEME","CLASSIFICATION_TYPE":"U","MEAN_MOTION_DOT":"0.00003901","RCS_SIZE":"LARGE","ECCENTRICITY":"0.00013770","EPHEMERIS_TYPE":"0","EPOCH":"2022-12-14T20:32:59.541216","NORAD_CAT_ID":"46131","MEAN_MOTION_DDOT":"0.0000000000000","PERIOD":"95.592","OBJECT_TYPE":"PAYLOAD","SITE":"AFETR","RA_OF_ASC_NODE":"197.5809","CENTER_NAME":"EARTH","OBJECT_ID":"2020-057Q","LAUNCH_DATE":"2020-08-18","MEAN_ANOMALY":"293.0499","OBJECT_NAME":"STARLINK-1625","BSTAR":"0.00028059000000","MEAN_MOTION":"15.06407460","ARG_OF_PERICENTER":"67.0635","REV_AT_EPOCH":"12962","INCLINATION":"53.0553","PERIAPSIS":"546.237","SEMIMAJOR_AXIS":"6925.326","DECAY_DATE":null,"COUNTRY_CODE":"US","GP_ID":"220406033"},{"MEAN_MOTION":"15.06434270","ARG_OF_PERICENTER":"59.7910","BSTAR":"0.00056639000000","REV_AT_EPOCH":"12933","OBJECT_ID":"2020-057R","LAUNCH_DATE":"2020-08-18","MEAN_ANOMALY":"300.3235","OBJECT_NAME":"STARLINK-1630","COUNTRY_CODE":"US","DECAY_DATE":null,"SEMIMAJOR_AXIS":"6925.244","GP_ID":"220406784","INCLINATION":"53.0526","PERIAPSIS":"546.017","MEAN_MOTION_DDOT":"0.0000000000000","PERIOD":"95.590","NORAD_CAT_ID":"46132","OBJECT_TYPE":"PAYLOAD","RA_OF_ASC_NODE":"218.0129","CENTER_NAME":"EARTH","SITE":"AFETR","RCS_SIZE":"LARGE","MEAN_MOTION_DOT":"0.00008173","ECCENTRICITY":"0.00015760","TIME_SYSTEM":"UTC","CLASSIFICATION_TYPE":"U","REF_FRAME":"TEME","EPOCH":"2022-12-14T18:17:36.548448","EPHEMERIS_TYPE":"0","MEAN_ELEMENT_THEORY":"SGP4","APOAPSIS":"548.200","TLE_LINE1":"1 46132U 20057R   22348.76222857  .00008173  00000-0  56639-3 0  9999","TLE_LINE2":"2 46132  53.0526 218.0129 0001576  59.7910 300.3235 15.06434270129338","FILE":"3699647","ELEMENT_SET_NO":"999"},{"ELEMENT_SET_NO":"999","FILE":"3699647","TLE_LINE2":"2 46133  53.0531 177.7237 0001516  76.4073 283.7085 15.06401887129892","TLE_LINE1":"1 46133U 20057S   22348.82859648  .00001890  00000-0  14575-3 0  9993","MEAN_ELEMENT_THEORY":"SGP4","APOAPSIS":"548.258","EPHEMERIS_TYPE":"0","EPOCH":"2022-12-14T19:53:10.735872","REF_FRAME":"TEME","CLASSIFICATION_TYPE":"U","TIME_SYSTEM":"UTC","ECCENTRICITY":"0.00015160","MEAN_MOTION_DOT":"0.00001890","RCS_SIZE":"LARGE","SITE":"AFETR","RA_OF_ASC_NODE":"177.7237","CENTER_NAME":"EARTH","OBJECT_TYPE":"PAYLOAD","NORAD_CAT_ID":"46133","MEAN_MOTION_DDOT":"0.0000000000000","PERIOD":"95.592","INCLINATION":"53.0531","PERIAPSIS":"546.158","GP_ID":"220406529","SEMIMAJOR_AXIS":"6925.343","DECAY_DATE":null,"COUNTRY_CODE":"US","MEAN_ANOMALY":"283.7085","OBJECT_NAME":"STARLINK-1637","LAUNCH_DATE":"2020-08-18","OBJECT_ID":"2020-057S","REV_AT_EPOCH":"12989","BSTAR":"0.00014575000000","ARG_OF_PERICENTER":"76.4073","MEAN_MOTION":"15.06401887"},{"SITE":"AFETR","RA_OF_ASC_NODE":"177.6966","CENTER_NAME":"EARTH","OBJECT_TYPE":"PAYLOAD","NORAD_CAT_ID":"46134","PERIOD":"95.592","MEAN_MOTION_DDOT":"0.0000000000000","GP_ID":"220405288","SEMIMAJOR_AXIS":"6925.349","COUNTRY_CODE":"US","DECAY_DATE":null,"PERIAPSIS":"546.013","INCLINATION":"53.0527","REV_AT_EPOCH":"12864","BSTAR":"0.00011852000000","MEAN_MOTION":"15.06399768","ARG_OF_PERICENTER":"72.7697","OBJECT_NAME":"STARLINK-1638","MEAN_ANOMALY":"287.3482","LAUNCH_DATE":"2020-08-18","OBJECT_ID":"2020-057T","ELEMENT_SET_NO":"999","TLE_LINE1":"1 46134U 20057T   22348.83133715  .00001484  00000-0  11852-3 0  9999","APOAPSIS":"548.415","MEAN_ELEMENT_THEORY":"SGP4","TLE_LINE2":"2 46134  53.0527 177.6966 0001734  72.7697 287.3482 15.06399768128646","FILE":"3699647","EPHEMERIS_TYPE":"0","EPOCH":"2022-12-14T19:57:07.529760","ECCENTRICITY":"0.00017340","MEAN_MOTION_DOT":"0.00001484","RCS_SIZE":"LARGE","REF_FRAME":"TEME","CLASSIFICATION_TYPE":"U","TIME_SYSTEM":"UTC"},{"OBJECT_TYPE":"PAYLOAD","CENTER_NAME":"EARTH","RA_OF_ASC_NODE":"178.2310","SITE":"AFETR","MEAN_MOTION_DDOT":"0.0000000000000","PERIOD":"95.592","NORAD_CAT_ID":"46135","INCLINATION":"53.0531","PERIAPSIS":"546.425","COUNTRY_CODE":"US","DECAY_DATE":null,"SEMIMAJOR_AXIS":"6925.333","GP_ID":"220405534","OBJECT_ID":"2020-057U","LAUNCH_DATE":"2020-08-18","MEAN_ANOMALY":"288.2710","OBJECT_NAME":"STARLINK-1639","ARG_OF_PERICENTER":"71.8400","MEAN_MOTION":"15.06405054","BSTAR":"-0.00008381100000","REV_AT_EPOCH":"12862","ELEMENT_SET_NO":"999","FILE":"3699647","TLE_LINE2":"2 46135  53.0531 178.2310 0001116  71.8400 288.2710 15.06405054128626","MEAN_ELEMENT_THEORY":"SGP4","APOAPSIS":"547.971","TLE_LINE1":"1 46135U 20057U   22348.71433900 -.00001530  00000-0 -83811-4 0  9995","EPOCH":"2022-12-14T17:08:38.889600","EPHEMERIS_TYPE":"0","TIME_SYSTEM":"UTC","CLASSIFICATION_TYPE":"U","REF_FRAME":"TEME","RCS_SIZE":"LARGE","MEAN_MOTION_DOT":"-0.00001530","ECCENTRICITY":"0.00011160"},{"MEAN_ANOMALY":"303.8980","OBJECT_NAME":"STARLINK-1643","OBJECT_ID":"2020-057V","LAUNCH_DATE":"2020-08-18","REV_AT_EPOCH":"12821","MEAN_MOTION":"15.06386311","ARG_OF_PERICENTER":"56.2186","BSTAR":"0.00043147000000","INCLINATION":"53.0517","PERIAPSIS":"545.965","GP_ID":"220406284","COUNTRY_CODE":"US","DECAY_DATE":null,"SEMIMAJOR_AXIS":"6925.391","MEAN_MOTION_DDOT":"0.0000000000000","PERIOD":"95.593","NORAD_CAT_ID":"46136","CENTER_NAME":"EARTH","RA_OF_ASC_NODE":"207.9850","SITE":"AFETR","OBJECT_TYPE":"PAYLOAD","CLASSIFICATION_TYPE":"U","REF_FRAME":"TEME","TIME_SYSTEM":"UTC","ECCENTRICITY":"0.00018630","RCS_SIZE":"LARGE","MEAN_MOTION_DOT":"0.00006149","EPOCH":"2022-12-14T18:17:36.437856","EPHEMERIS_TYPE":"0","TLE_LINE2":"2 46136  53.0517 207.9850 0001863  56.2186 303.8980 15.06386311128219","FILE":"3699647","TLE_LINE1":"1 46136U 20057V   22348.76222729  .00006149  00000-0  43147-3 0  9992","MEAN_ELEMENT_THEORY":"SGP4","APOAPSIS":"548.546","ELEMENT_SET_NO":"999"},{"OBJECT_TYPE":"PAYLOAD","SITE":"AFETR","RA_OF_ASC_NODE":"197.0317","CENTER_NAME":"EARTH","NORAD_CAT_ID":"46137","PERIOD":"95.592","MEAN_MOTION_DDOT":"0.0000000000000","SEMIMAJOR_AXIS":"6925.346","DECAY_DATE":null,"COUNTRY_CODE":"US","GP_ID":"220413767","INCLINATION":"53.0525","PERIAPSIS":"545.807","BSTAR":"0.00010211000000","ARG_OF_PERICENTER":"60.0993","MEAN_MOTION":"15.06400790","REV_AT_EPOCH":"12904","OBJECT_ID":"2020-057W","LAUNCH_DATE":"2020-08-18","OBJECT_NAME":"STARLINK-1586","MEAN_ANOMALY":"300.0197","ELEMENT_SET_NO":"999","APOAPSIS":"548.616","MEAN_ELEMENT_THEORY":"SGP4","TLE_LINE1":"1 46137U 20057W   22348.98156247  .00001240  00000-0  10211-3 0  9991","FILE":"3699678","TLE_LINE2":"2 46137  53.0525 197.0317 0002028  60.0993 300.0197 15.06400790129048","EPHEMERIS_TYPE":"0","EPOCH":"2022-12-14T23:33:26.997408","MEAN_MOTION_DOT":"0.00001240","RCS_SIZE":"LARGE","ECCENTRICITY":"0.00020280","TIME_SYSTEM":"UTC","REF_FRAME":"TEME","CLASSIFICATION_TYPE":"U"},{"TLE_LINE1":"1 46138U 20057X   22348.38259990 -.00000346  00000-0 -43146-5 0  9998","MEAN_ELEMENT_THEORY":"SGP4","APOAPSIS":"548.241","TLE_LINE2":"2 46138  53.0532 219.7187 0001494  82.1642 277.9517 15.06402415128016","FILE":"3698874","ELEMENT_SET_NO":"999","ECCENTRICITY":"0.00014940","RCS_SIZE":"LARGE","MEAN_MOTION_DOT":"-0.00000346","CLASSIFICATION_TYPE":"U","REF_FRAME":"TEME","TIME_SYSTEM":"UTC","EPOCH":"2022-12-14T09:10:56.631360","EPHEMERIS_TYPE":"0","PERIOD":"95.592","MEAN_MOTION_DDOT":"0.0000000000000","NORAD_CAT_ID":"46138","CENTER_NAME":"EARTH","RA_OF_ASC_NODE":"219.7187","SITE":"AFETR","OBJECT_TYPE":"PAYLOAD","REV_AT_EPOCH":"12801","MEAN_MOTION":"15.06402415","ARG_OF_PERICENTER":"82.1642","BSTAR":"-0.00000431460000","MEAN_ANOMALY":"277.9517","OBJECT_NAME":"STARLINK-1590","LAUNCH_DATE":"2020-08-18","OBJECT_ID":"2020-057X","GP_ID":"220362997","DECAY_DATE":null,"COUNTRY_CODE":"US","SEMIMAJOR_AXIS":"6925.341","INCLINATION":"53.0532","PERIAPSIS":"546.172"}];
